C/2017 K6 (Jacques),e,57.2401,85.0030,303.7527,1101,0.0000270,0.99818611,0.0000,01/03.5939/2018,2000,g 11.0,4.0
# From MPC xxxxx
C/2017 M3 (PANSTARRS),e,77.5751,7.0279,110.3133,166.7611,0.0004577,0.97208534,0.0000,04/28.1493/2017,2000,g 10.5,4.0
# From MPC xxxxx
C/2017 M4 (ATLAS),h,01/17.9455/2019,105.6488,65.8957,167.6104,1.001320,3.253503,2000,6.0,4.0
# From MPC118841
C/2017 M5 (TOTAS),h,06/04.4070/2018,15.8731,216.2863,92.7924,1.005503,5.996671,2000,6.5,4.0
# From MPC114599
C/2017 O1 (ASASSN),e,39.9351,25.7412,20.8358,359.8986,0.0001444,0.99585184,0.0000,10/15.1306/2017,2000,g 11.0,4.0
# From MPC114599
P/2017 P1 (PANSTARRS),e,7.6942,221.3927,122.4048,7.900681,0.0443820,0.31095387,50.0935,07/23.0/2021,2000,g 10.0,4.0
# From MPC114599
C/2017 P2 (PANSTARRS),e,50.0498,165.4658,132.4182,2355,0.0000086,0.99895203,0.0000,12/06.5467/2017,2000,g 10.0,4.0
# From MPC114599
P/2017 R1 (PANSTARRS),e,2.5744,143.6164,178.6451,4.135034,0.1172156,0.19570292,183.3436,07/23.0/2021,2000,g 13.5,4.0
# From MPC108595
C/2017 S2 (PANSTARRS),e,12.6743,62.3755,306.0039,20.57805,0.0105584,0.82449762,15.0233,07/23.0/2021,2000,g 13.0,4.0
# From MPC114599
C/2017 S3 (PANSTARRS),h,08/16.1590/2018,99.1840,171.2684,255.8287,1.000061,0.207469,2000,11.0,4.0
# From MPC114599
P/2017 S5 (ATLAS),e,11.8526,252.3666,99.8967,3.167484,0.1748367,0.31437604,254.3178,07/23.0/2021,2000,g 14.0,4.0
# From MPC109591
C/2017 S6 (Catalina),h,02/26.2575/2018,152.8674,131.0434,134.8572,1.000693,1.546279,2000,12.5,4.0
# From MPC114599
C/2017 S7 (Lemmon),e,124.2267,262.7647,187.5465,21375,0.0000003,0.99964415,0.0000,05/24.5425/2017,2000,g  7.0,4.0
# From MPC114599
P/2017 S8 (PANSTARRS),e,29.8335,191.5627,254.7624,2.780875,0.2125357,0.39157346,270.7091,07/23.0/2021,2000,g 16.0,4.0
# From MPC107050
P/2017 S9 (PANSTARRS),e,14.1439,146.2233,237.6984,3.153640,0.1759892,0.30529405,257.1017,07/23.0/2021,2000,g 17.0,4.0
# From MPC114600
C/2017 T1 (Heinze),e,96.8557,102.3705,96.9679,14479,0.0000006,0.99995967,0.0000,02/20.9993/2018,2000,g 14.5,4.0
# From MPC xxxxx
C/2017 T2 (PANSTARRS),e,57.2261,64.3771,92.9985,2539,0.0000077,0.99936360,0.0000,05/04.9019/2020,2000,g  5.0,4.0
# From MPC114600
C/2017 T3 (ATLAS),e,88.1127,230.1197,246.8291,1181,0.0000243,0.99930167,0.0000,07/18.8503/2018,2000,g 10.0,4.0
# From MPC115882
P/2017 TW13 (Lemmon),e,44.8502,322.2986,119.9624,7.141244,0.0516468,0.70956254,58.2610,07/23.0/2021,2000,g 15.0,2.0
# From MPC114600
C/2017 U2 (Fuls),e,95.3866,149.7064,147.8198,2959,0.0000061,0.99773280,0.0000,08/28.1840/2017,2000,g  9.0,4.0
# From MPC114600
P/2017 U3 (PANSTARRS),e,15.9179,165.1092,296.7283,4.928859,0.0900709,0.09891405,74.7412,07/23.0/2021,2000,g 11.0,4.0
# From MPC xxxxx
C/2017 U4 (PANSTARRS),h,09/23.0024/2018,158.2126,245.9373,159.0095,1.001793,7.720659,2000,7.0,4.0
# From MPC114600
C/2017 U5 (PANSTARRS),e,18.9767,163.0856,262.0084,16.87792,0.0142143,0.74410765,18.6552,07/23.0/2021,2000,g 12.0,4.0
# From MPEC 2021-N06
C/2017 U7 (PANSTARRS),h,09/14.2095/2019,142.5914,276.2449,326.3240,1.000479,6.423794,2000,8.3,2.0
# From MPC114600
C/2017 W2 (Leonard),e,98.1991,312.8412,168.9947,13.64712,0.0195498,0.71053786,26.5871,07/23.0/2021,2000,g 11.0,4.0
# From MPC114601
P/2017 W3 (Gibbs),e,18.1669,210.2671,327.8383,7.841235,0.0448877,0.50712289,55.6789,07/23.0/2021,2000,g 10.5,4.0
# From MPC115883
C/2017 X1 (PANSTARRS),e,31.3084,251.1317,283.2722,31.24953,0.0056421,0.85057735,6.3983,07/23.0/2021,2000,g 10.0,4.0
# From MPC117069
C/2017 Y1 (PANSTARRS),e,55.2654,307.5277,134.2814,1766,0.0000133,0.99790008,0.0000,08/31.2349/2017,2000,g 11.5,4.0
# From MPC xxxxx
C/2017 Y2 (PANSTARRS),h,11/04.8093/2020,128.4124,65.9943,147.9011,1.000736,4.632370,2000,15.0,4.0
# From MPC111770
P/2017 Y3 (Leonard),e,27.5575,153.8427,67.6103,9.842143,0.0319205,0.86996152,40.1771,07/23.0/2021,2000,g 16.5,4.0
# From MPC114601
C/2018 A1 (PANSTARRS),e,53.6135,336.6590,96.2359,25.09615,0.0078396,0.90386736,10.7509,07/23.0/2021,2000,g 12.5,4.0
# From MPC xxxxx
C/2018 A3 (ATLAS),e,139.5389,194.2934,86.3765,439.6320,0.0001069,0.99254932,0.0000,01/12.3757/2019,2000,g  8.5,4.0
# From MPC114601
C/2018 A4 (PANSTARRS),e,3.1486,97.6219,356.0103,12.19412,0.0231461,0.80336454,26.8837,07/23.0/2021,2000,g 14.0,4.0
# From MPC109147
P/2018 A5 (PANSTARRS),e,23.5847,87.8169,359.5385,5.633409,0.0737135,0.52242762,103.1243,07/23.0/2021,2000,g 15.0,4.0
# From MPEC 2021-N06
C/2018 A6 (Gibbs),e,77.0346,340.3773,264.5123,15.23882,0.0165683,0.80189315,12.2656,07/23.0/2021,2000,g  9.0,4.0
# From MPC118841
C/2018 B1 (Lemmon),h,03/29.1109/2018,162.4200,133.1908,68.3196,1.000315,5.118310,2000,9.0,4.0
# From MPC114601
P/2018 C1 (Lemmon-Read),e,5.1176,270.3699,235.7080,5.654314,0.0733051,0.53260727,91.1813,07/23.0/2021,2000,g 13.5,4.0
# From MPC114601
C/2018 C2 (Lemmon),h,06/01.4328/2018,34.4606,91.1607,134.1070,1.000582,1.959207,2000,13.0,4.0
# From MPC xxxxx
C/2018 DO4 (Lemmon),e,160.4638,251.2883,176.1917,25.63625,0.0075932,0.90595169,5.3533,07/23.0/2021,2000,g 11.0,4.0
# From MPC114602
C/2018 E1 (ATLAS),e,72.5169,146.8681,299.3659,53.90048,0.0024907,0.94990898,2.9703,07/23.0/2021,2000,g 10.5,4.0
# From MPC114602
C/2018 E2 (Barros),e,97.6892,67.1879,277.4583,3985,0.0000039,0.99901654,0.0000,12/24.0328/2017,2000,g 10.5,4.0
# From MPC114602
C/2018 EN4 (NEOWISE),e,81.7270,136.1362,35.0286,18.17769,0.0127173,0.92007879,14.5315,07/23.0/2021,2000,g 15.0,4.0
# From MPC114602
C/2018 EF9 (Lemmon),e,84.6270,172.5593,72.6202,523.1814,0.0000824,0.99702148,0.0000,05/22.5356/2018,2000,g 18.0,2.0
# From MPC115883
C/2018 F1 (Grauer),e,46.0778,177.2758,71.6266,273.2741,0.0002182,0.98904092,0.0000,12/13.4902/2018,2000,g 11.5,4.0
# From MPC110084
C/2018 F3 (Johnson),p,08/15.2314/2017,105.5348,293.0113,2.483172,173.0311,2000,13.0,4.0
# From MPC xxxxx
C/2018 F4 (PANSTARRS),h,12/04.0821/2019,78.0902,26.5149,263.2304,1.001125,3.440889,2000,11.0,6.0
# From MPC114602
P/2018 H2 (PANSTARRS),e,7.3893,68.3554,119.9501,4.390649,0.1071300,0.54033248,136.8878,07/23.0/2021,2000,g 16.6,2.0
# From MPC114602
C/2018 K1 (Weiland),e,164.1950,260.0668,325.1262,30.04108,0.0059859,0.93732496,7.2016,07/23.0/2021,2000,g 14.9,4.0
# From MPC xxxxx
C/2018 KJ3 (Lemmon),e,136.7052,91.6094,217.6804,892.4843,0.0000370,0.99593324,0.0000,09/09.8053/2019,2000,g 12.2,2.0
# From MPC114602
P/2018 L1 (PANSTARRS),e,10.5901,268.6320,18.0041,3.651488,0.1412535,0.48268503,138.9138,07/23.0/2021,2000,g 15.0,4.0
# From MPC xxxxx
C/2018 L2 (ATLAS),e,67.3623,243.0219,56.2857,261.3341,0.0002333,0.99344408,0.0000,12/02.6836/2018,2000,g 10.0,4.0
# From MPC114603
P/2018 L4 (PANSTARRS),e,26.6255,145.1517,140.5900,4.941912,0.0897143,0.65998673,97.5381,07/23.0/2021,2000,g 17.5,4.0
# From MPC119996
P/2018 L5 (Leonard),e,2.2081,219.1048,93.8499,3.628105,0.1426212,0.36472592,167.5390,07/23.0/2021,2000,g 14.5,4.0
# From MPC117070
C/2018 M1 (Catalina),e,37.2993,339.4104,14.1783,21.38983,0.0099631,0.93910454,11.0445,07/23.0/2021,2000,g 15.5,4.0
# From MPC112393
C/2018 N1 (NEOWISE),e,159.4411,292.4557,354.6555,361.6628,0.0001433,0.99637624,0.0000,08/02.0283/2018,2000,g 15.5,4.0
# From MPEC 2021-N06
C/2018 N2 (ASASSN),h,11/10.9935/2019,77.5323,25.2340,24.4120,1.000193,3.125027,2000,6.0,4.0
# From MPC114603
C/2018 O1 (ATLAS),e,154.0339,87.6684,162.6191,27.96906,0.0066633,0.94419361,7.0384,07/23.0/2021,2000,g 17.0,4.0
# From MPC114603
P/2018 P3 (PANSTARRS),e,8.9100,59.1740,305.8908,3.005798,0.1891317,0.41668599,192.3326,07/23.0/2021,2000,g 14.5,4.0
# From MPC114603
P/2018 P4 (PANSTARRS),e,23.1084,353.0671,8.2623,6.674651,0.0571559,0.45055944,56.4568,07/23.0/2021,2000,g 12.0,4.0
# From MPC xxxxx
C/2018 P5 (PANSTARRS),e,7.2513,216.2341,131.7694,12.81122,0.0214941,0.64260112,18.8433,07/23.0/2021,2000,g 11.0,4.0
# From MPC118841
C/2018 R3 (Lemmon),e,69.7299,324.6426,112.8074,1606,0.0000153,0.99919766,0.0000,06/07.2960/2019,2000,g  9.5,4.0
# From MPC112393
C/2018 R4 (Fuls),e,11.6824,298.4476,345.3025,334.5934,0.0001610,0.99487196,0.0000,03/03.5343/2018,2000,g 14.0,4.0
# From MPC114603
C/2018 R5 (Lemmon),e,103.7485,171.1205,178.0727,22.79373,0.0090569,0.84098477,8.3775,07/23.0/2021,2000,g 11.5,4.0
# From MPEC 2021-N06
C/2018 U1 (Lemmon),h,11/02.9994/2021,108.2965,75.4805,180.4538,1.001316,4.993032,2000,5.0,4.0
# From MPC114604
C/2018 V1 (Machholz-Fujikawa-Iwamoto),h,12/03.1473/2018,144.0552,128.8847,88.8662,1.000334,0.386913,2000,12.0,4.0
# From MPC115884
C/2018 V2 (ATLAS),e,159.1679,357.0857,318.9440,25.07622,0.0078489,0.90118005,7.6127,07/23.0/2021,2000,g 15.0,4.0
# From MPC114604
P/2018 VN2 (Leonard),e,18.2514,226.4966,138.7589,4.064443,0.1202825,0.47864896,137.4864,07/23.0/2021,2000,g 15.0,4.0
# From MPC xxxxx
A/2018 V3,e,164.9779,308.6570,3.5415,123.1256,0.0007214,0.98910907,0.0000,09/08.7025/2019,2000,g 15.7,2.0
# From MPC114604
C/2018 V4 (Africano),e,69.0051,78.3522,359.9319,204.4861,0.0003371,0.98436860,0.0000,03/01.3781/2019,2000,g 12.5,4.0
# From MPC xxxxx
P/2018 V5 (Trujillo-Sheppard),e,10.5869,171.2873,260.6726,8.954217,0.0367843,0.47476179,37.6758,07/23.0/2021,2000,g 12.5,4.0
# From MPC xxxxx
C/2018 W1 (Catalina),e,83.2848,233.6025,251.2439,21.68793,0.0097584,0.93726265,7.8392,07/23.0/2021,2000,g 15.5,2.0
# From MPC xxxxx
C/2018 W2 (Africano),h,09/05.5797/2019,116.6196,181.8381,157.9811,1.000391,1.455732,2000,9.5,4.0
# From MPC119996
C/2018 X2 (Fitzsimmons),e,23.0693,340.8307,162.0385,145.1511,0.0005636,0.98535149,0.0000,07/08.3188/2019,2000,g 12.0,4.0
# From MPC114604
C/2018 X3 (PANSTARRS),e,43.3752,78.8939,359.7416,12.37242,0.0226476,0.78216086,21.1852,07/23.0/2021,2000,g 14.5,4.0
# From MPC118842
C/2018 Y1 (Iwamoto),e,160.3988,147.5145,358.0023,138.7625,0.0006030,0.99074362,0.0000,02/06.9229/2019,2000,g 11.5,4.0
# From MPC114605
P/2018 Y2 (Africano),e,11.6825,297.2609,162.3156,7.459234,0.0483796,0.47862679,45.1604,07/23.0/2021,2000,g 11.5,4.0
# From MPC114605
P/2019 A1 (PANSTARRS),e,13.7443,312.3019,150.7616,5.121342,0.0850410,0.56835832,86.4379,07/23.0/2021,2000,g 16.0,4.0
# From MPC xxxxx
